NORAD_CAT_ID,OBJECT_NAME,OBJECT_TYPE,EPOCH,MEAN_MOTION,ECCENTRICITY,INCLINATION,RA_OF_ASC_NODE,ARG_OF_PERICENTER,MEAN_ANOMALY,BSTAR,MEAN_MOTION_DOT,MEAN_MOTION_DDOT,TLE_LINE0,TLE_LINE1,TLE_LINE2,SEMIMAJOR_AXIS,PERIOD,APOGEE,PERIGEE,DECAYED
52635.0,STARLINK-3978,PAYLOAD,2024-01-20 16:42:57,15.08833814,0.0001403,53.2164,156.1584,72.7261,287.3885,1.9107e-05,1.6e-07,0.0,0 STARLINK-3978,1 52635U 22052AP  24020.69649645  .00000016  00000-0  19107-4 0  9998,2 52635  53.2164 156.1584 0001403  72.7261 287.3885 15.08833814 93900,6917.899,95.438,540.735,538.794,0.0
52635.0,STARLINK-3978,PAYLOAD,2024-01-21 08:36:47,15.08847346,0.0001322,53.2167,153.1837,77.8429,282.2711,0.00010669,1.411e-05,0.0,0 STARLINK-3978,1 52635U 22052AP  24021.35888760  .00001411  00000-0  10669-3 0  9998,2 52635  53.2167 153.1837 0001322  77.8429 282.2711 15.08847346 94002,6917.858,95.437,540.637,538.808,0.0
52635.0,STARLINK-3978,PAYLOAD,2024-01-21 14:58:20,15.08857527,0.0001414,53.2151,151.9953,75.7238,284.3911,0.00038008,5.769e-05,0.0,0 STARLINK-3978,1 52635U 22052AP  24021.62384325  .00005769  00000-0  38008-3 0  9993,2 52635  53.2151 151.9953 0001414  75.7238 284.3911 15.08857527 94048,6917.827,95.436,540.67,538.714,0.0
52635.0,STARLINK-3978,PAYLOAD,2024-01-22 11:38:21,15.08848487,0.0001357,53.2163,148.1277,101.2824,258.832,0.00023846,3.51e-05,0.0,0 STARLINK-3978,1 52635U 22052AP  24022.48496635  .00003510  00000-0  23846-3 0  9992,2 52635  53.2163 148.1277 0001357 101.2824 258.8320 15.08848487 94179,6917.854,95.437,540.658,538.781,0.0
52635.0,STARLINK-3978,PAYLOAD,2024-01-22 14:49:07,15.08844828,0.0001582,53.2153,147.5369,88.0064,272.1109,0.0001191,1.608e-05,0.0,0 STARLINK-3978,1 52635U 22052AP  24022.61744730  .00001608  00000-0  11910-3 0  9994,2 52635  53.2153 147.5369 0001582  88.0064 272.1109 15.08844828 93821,6917.866,95.437,540.825,538.636,0.0
52635.0,STARLINK-3978,PAYLOAD,2024-01-23 11:29:08,15.08836547,0.0001857,53.2159,143.6679,115.188,244.9305,-0.00018672,-3.258e-05,0.0,0 STARLINK-3978,1 52635U 22052AP  24023.47857196 -.00003258  00000-0 -18672-3 0  9997,2 52635  53.2159 143.6679 0001857 115.1880 244.9305 15.08836547 94321,6917.891,95.438,541.041,538.471,0.0
52635.0,STARLINK-3978,PAYLOAD,2024-01-23 14:39:55,15.08831353,0.0001552,53.2163,143.0777,92.4499,267.6671,-0.00013183,-2.385e-05,0.0,0 STARLINK-3978,1 52635U 22052AP  24023.61105791 -.00002385  00000-0 -13183-3 0  9992,2 52635  53.2163 143.0777 0001552  92.4499 267.6671 15.08831353 94344,6917.907,95.438,540.845,538.698,0.0
52635.0,STARLINK-3978,PAYLOAD,2024-01-24 11:19:55,15.08848179,0.0001415,53.2164,139.207,70.5695,289.545,0.00022013,3.218e-05,0.0,0 STARLINK-3978,1 52635U 22052AP  24024.47216706  .00003218  00000-0  22013-3 0  9992,2 52635  53.2164 139.2070 0001415  70.5695 289.5450 15.08848179 94477,6917.855,95.437,540.699,538.742,0.0
52635.0,STARLINK-3978,PAYLOAD,2024-01-24 12:55:18,15.08850493,0.0001571,53.2169,138.9104,66.1484,293.9672,0.00026524,3.937e-05,0.0,0 STARLINK-3978,1 52635U 22052AP  24024.53840644  .00003937  00000-0  26524-3 0  9992,2 52635  53.2169 138.9104 0001571  66.1484 293.9672 15.08850493 94114,6917.848,95.437,540.8,538.627,0.0
52635.0,STARLINK-3978,PAYLOAD,2024-01-24 19:16:49,15.08872706,0.0001801,53.2163,137.7195,120.9566,239.1603,0.0005138,7.906e-05,0.0,0 STARLINK-3978,1 52635U 22052AP  24024.80335039  .00007906  00000-0  51380-3 0  9997,2 52635  53.2163 137.7195 0001801 120.9566 239.1603 15.08872706 94152,6917.78,95.435,540.891,538.4,0.0
52635.0,STARLINK-3978,PAYLOAD,2024-01-25 11:10:40,15.08869505,0.0001852,53.2155,134.7424,121.213,238.9044,0.00040643,6.191e-05,0.0,0 STARLINK-3978,1 52635U 22052AP  24025.46574181  .00006191  00000-0  40643-3 0  9998,2 52635  53.2155 134.7424 0001852 121.2130 238.9044 15.08869505 94623,6917.79,95.436,540.936,538.374,0.0
52635.0,STARLINK-3978,PAYLOAD,2024-01-25 14:21:27,15.08837565,0.0001314,53.2162,134.1536,83.4997,276.6145,-8.2432e-05,-1.599e-05,0.0,0 STARLINK-3978,1 52635U 22052AP  24025.59823721 -.00001599  00000-0 -82432-4 0  9991,2 52635  53.2162 134.1536 0001314  83.4997 276.6145 15.08837565 94275,6917.888,95.438,540.662,538.844,0.0
52635.0,STARLINK-3978,PAYLOAD,2024-01-26 14:12:15,15.08841238,0.0001586,53.2172,129.6905,92.7297,267.3877,-0.00018251,-3.192e-05,0.0,0 STARLINK-3978,1 52635U 22052AP  24026.59184734 -.00003192  00000-0 -18251-3 0  9994,2 52635  53.2172 129.6905 0001586  92.7297 267.3877 15.08841238 94420,6917.877,95.437,540.839,538.644,0.0
52635.0,STARLINK-3978,PAYLOAD,2024-01-26 17:23:01,15.08837518,0.0001681,53.2171,129.0974,97.4539,262.6644,-0.00026386,-4.485e-05,0.0,0 STARLINK-3978,1 52635U 22052AP  24026.72431739 -.00004485  00000-0 -26386-3 0  9993,2 52635  53.2171 129.0974 0001681  97.4539 262.6644 15.08837518 94815,6917.888,95.438,540.916,538.59,0.0
52635.0,STARLINK-3978,PAYLOAD,2024-01-27 12:27:39,15.08826959,0.0001688,53.2167,125.53,89.3558,270.7628,0.00026399,3.914e-05,0.0,0 STARLINK-3978,1 52635U 22052AP  24027.51921093  .00003914  00000-0  26399-3 0  9996,2 52635  53.2167 125.5300 0001688  89.3558 270.7628 15.08826959 94934,6917.92,95.438,540.953,538.618,0.0
52635.0,STARLINK-3978,PAYLOAD,2024-01-27 14:03:02,15.08829149,0.0001817,53.2172,125.2326,96.4985,263.6214,0.00031161,4.673e-05,0.0,0 STARLINK-3978,1 52635U 22052AP  24027.58545089  .00004673  00000-0  31161-3 0  9996,2 52635  53.2172 125.2326 0001817  96.4985 263.6214 15.08829149 94578,6917.914,95.438,541.036,538.522,0.0
52635.0,STARLINK-3978,PAYLOAD,2024-01-28 13:53:51,15.0882935,0.0002127,53.2172,120.7723,66.4486,293.673,0.00013876,1.92e-05,0.0,0 STARLINK-3978,1 52635U 22052AP  24028.57906310  .00001920  00000-0  13876-3 0  9999,2 52635  53.2172 120.7723 0002127  66.4486 293.6730 15.08829350 94724,6917.913,95.438,541.249,538.307,0.0
52635.0,STARLINK-3978,PAYLOAD,2024-01-29 12:09:13,15.0885811,0.000178,53.2164,116.6125,74.8903,285.2286,0.00035537,5.375e-05,0.0,0 STARLINK-3978,1 52635U 22052AP  24029.50640964  .00005375  00000-0  35537-3 0  9999,2 52635  53.2164 116.6125 0001780  74.8903 285.2286 15.08858110 95232,6917.825,95.436,540.921,538.459,0.0
52635.0,STARLINK-3978,PAYLOAD,2024-01-30 12:00:01,15.08841546,0.0001567,53.216,112.1503,85.9,274.2171,6.7858e-05,7.92e-06,0.0,0 STARLINK-3978,1 52635U 22052AP  24030.50001594  .00000792  00000-0  67858-4 0  9991,2 52635  53.2160 112.1503 0001567  85.9000 274.2171 15.08841546 95015,6917.876,95.437,540.825,538.657,0.0
52635.0,STARLINK-3978,PAYLOAD,2024-01-31 11:50:48,15.08841196,0.0001685,53.2163,107.6863,99.3847,260.7336,-6.6747e-05,-1.35e-05,0.0,0 STARLINK-3978,1 52635U 22052AP  24031.49361717 -.00001350  00000-0 -66747-4 0  9995,2 52635  53.2163 107.6863 0001685  99.3847 260.7336 15.08841196 95165,6917.877,95.437,540.907,538.576,0.0
52635.0,STARLINK-3978,PAYLOAD,2024-01-31 15:01:34,15.08841533,0.0001882,53.2163,107.0916,102.9936,257.1267,-7.3284e-05,-1.454e-05,0.0,0 STARLINK-3978,1 52635U 22052AP  24031.62609702 -.00001454  00000-0 -73284-4 0  9998,2 52635  53.2163 107.0916 0001882 102.9936 257.1267 15.08841533 95558,6917.876,95.437,541.043,538.439,0.0
52635.0,STARLINK-3978,PAYLOAD,2024-02-01 11:41:36,15.08834545,0.0001684,53.2172,103.2263,102.5725,257.5455,0.00012085,1.636e-05,0.0,0 STARLINK-3978,1 52635U 22052AP  24032.48722323  .00001636  00000-0  12085-3 0  9999,2 52635  53.2172 103.2263 0001684 102.5725 257.5455 15.08834545 95685,6917.897,95.438,540.927,538.597,0.0
52635.0,STARLINK-3978,PAYLOAD,2024-02-01 14:52:22,15.08836942,0.0001673,53.2171,102.631,102.5753,257.5426,0.00013256,1.822e-05,0.0,0 STARLINK-3978,1 52635U 22052AP  24032.61970210  .00001822  00000-0  13256-3 0  9992,2 52635  53.2171 102.6310 0001673 102.5753 257.5426 15.08836942 95332,6917.89,95.438,540.912,538.597,0.0
52635.0,STARLINK-3978,PAYLOAD,2024-02-02 09:56:59,15.08844488,0.0001657,53.2174,99.0625,105.2906,254.827,0.00015896,2.243e-05,0.0,0 STARLINK-3978,1 52635U 22052AP  24033.41457783  .00002243  00000-0  15896-3 0  9996,2 52635  53.2174  99.0625 0001657 105.2906 254.8270 15.08844488 95820,6917.867,95.437,540.878,538.585,0.0
52635.0,STARLINK-3978,PAYLOAD,2024-02-02 14:43:08,15.08847532,0.0001689,53.2174,98.1701,107.0315,253.0862,0.00018166,2.605e-05,0.0,0 STARLINK-3978,1 52635U 22052AP  24033.61329522  .00002605  00000-0  18166-3 0  9992,2 52635  53.2174  98.1701 0001689 107.0315 253.0862 15.08847532 95487,6917.857,95.437,540.891,538.554,0.0
52635.0,STARLINK-3978,PAYLOAD,2024-02-03 11:23:10,15.08840056,0.0001501,53.217,94.3061,84.8764,275.2399,4.4977e-05,4.28e-06,0.0,0 STARLINK-3978,1 52635U 22052AP  24034.47442510  .00000428  00000-0  44977-4 0  9991,2 52635  53.2170  94.3061 0001501  84.8764 275.2399 15.08840056 95983,6917.88,95.438,540.784,538.707,0.0
52635.0,STARLINK-3978,PAYLOAD,2024-02-04 11:13:56,15.08849812,0.0001683,53.2166,89.8463,74.916,285.2018,0.00018174,2.606e-05,0.0,0 STARLINK-3978,1 52635U 22052AP  24035.46801691  .00002606  00000-0  18174-3 0  9999,2 52635  53.2166  89.8463 0001683  74.9160 285.2018 15.08849812 96130,6917.85,95.437,540.88,538.551,0.0
52635.0,STARLINK-3978,PAYLOAD,2024-02-05 03:07:48,15.08839303,0.000147,53.217,86.8729,88.862,271.2541,0.00012761,1.743e-05,0.0,0 STARLINK-3978,1 52635U 22052AP  24036.13042151  .00001743  00000-0  12761-3 0  9999,2 52635  53.2170  86.8729 0001470  88.8620 271.2541 15.08839303 96237,6917.883,95.438,540.764,538.731,0.0
52635.0,STARLINK-3978,PAYLOAD,2024-02-05 09:29:20,15.08843142,0.0001423,53.2168,85.6829,93.0506,267.0649,0.00014278,1.985e-05,0.0,0 STARLINK-3978,1 52635U 22052AP  24036.39537964  .00001985  00000-0  14278-3 0  9991,2 52635  53.2168  85.6829 0001423  93.0506 267.0649 15.08843142 95902,6917.871,95.437,540.72,538.751,0.0
52635.0,STARLINK-3978,PAYLOAD,2024-02-06 09:20:07,15.08844715,0.0001682,53.2162,81.2233,113.267,246.85,1.588e-05,-3.5e-07,0.0,0 STARLINK-3978,1 52635U 22052AP  24037.38897944 -.00000035  00000-0  15880-4 0  9995,2 52635  53.2162  81.2233 0001682 113.2670 246.8500 15.08844715 96427,6917.866,95.437,540.895,538.567,0.0
